{"type": "FeatureCollection", "features": [{"type": "Feature", "properties": {"norad_id": 28054, "name": "DMSP 5D-3 F16 (USA 172)", "group": "weather", "lat": -43.825517638995926, "lon": 17.452696271820017, "alt_km": 846.3424285177216, "timestamp": "2025-12-17T04:57:44.047340+00:00", "meta": {"OBJECT_NAME": "DMSP 5D-3 F16 (USA 172)", "OBJECT_ID": "2003-048A", "EPOCH": "2025-12-17T00:19:41.602080", "MEAN_MOTION": 14.14425875, "ECCENTRICITY": 0.00063641, "INCLINATION": 99.0042, "RA_OF_ASC_NODE": 8.5043, "ARG_OF_PERICENTER": 307.3157, "MEAN_ANOMALY": 105.6223, "EPHEMERIS_TYPE": 0, "CLASSIFICATION_TYPE": "U", "NORAD_CAT_ID": 28054, "ELEMENT_SET_NO": 999, "REV_AT_EPOCH": 14373, "BSTAR": 8.8345924e-05, "MEAN_MOTION_DOT": 1.24e-06, "MEAN_MOTION_DDOT": 0}, "tle": {"line1": "1 28054U 03048A   25351.01367595  .00000124  00000+0  88346-4 0  9995", "line2": "2 28054  99.0042   8.5043 0006364 307.3157 105.6223 14.14425875143738"}}, "geometry": {"type": "Point", "coordinates": [17.452696271820017, -43.825517638995926]}}, {"type": "Feature", "properties": {"norad_id": 28912, "name": "METEOSAT-9 (MSG-2)", "group": "weather", "lat": 4.40693166955436, "lon": -153.4366287578143, "alt_km": 35772.634066228304, "timestamp": "2025-12-17T04:57:44.047392+00:00", "meta": {"OBJECT_NAME": "METEOSAT-9 (MSG-2)", "OBJECT_ID": "2005-049B", "EPOCH": "2025-12-16T18:42:37.808928", "MEAN_MOTION": 1.00278742, "ECCENTRICITY": 0.0003392, "INCLINATION": 8.9482, "RA_OF_ASC_NODE": 55.9391, "ARG_OF_PERICENTER": 190.8619, "MEAN_ANOMALY": 165.2785, "EPHEMERIS_TYPE": 0, "CLASSIFICATION_TYPE": "U", "NORAD_CAT_ID": 28912, "ELEMENT_SET_NO": 999, "REV_AT_EPOCH": 516, "BSTAR": 0, "MEAN_MOTION_DOT": 1.4e-06, "MEAN_MOTION_DDOT": 0}, "tle": {"line1": "1 28912U 05049B   25350.77960427  .00000140  00000+0  00000+0 0  9990", "line2": "2 28912   8.9482  55.9391 0003392 190.8619 165.2785  1.00278742  5165"}}, "geometry": {"type": "Point", "coordinates": [-153.4366287578143, 4.40693166955436]}}, {"type": "Feature", "properties": {"norad_id": 29522, "name": "DMSP 5D-3 F17 (USA 191)", "group": "weather", "lat": -79.35124176312773, "lon": 121.61130212295805, "alt_km": 845.693305160763, "timestamp": "2025-12-17T04:57:44.047409+00:00", "meta": {"OBJECT_NAME": "DMSP 5D-3 F17 (USA 191)", "OBJECT_ID": "2006-050A", "EPOCH": "2025-12-17T00:19:28.440768", "MEAN_MOTION": 14.14921489, "ECCENTRICITY": 0.00095698, "INCLINATION": 98.7391, "RA_OF_ASC_NODE": 356.3137, "ARG_OF_PERICENTER": 211.8944, "MEAN_ANOMALY": 148.1651, "EPHEMERIS_TYPE": 0, "CLASSIFICATION_TYPE": "U", "NORAD_CAT_ID": 29522, "ELEMENT_SET_NO": 999, "REV_AT_EPOCH": 98665, "BSTAR": 0.00010266962, "MEAN_MOTION_DOT": 1.55e-06, "MEAN_MOTION_DDOT": 0}, "tle": {"line1": "1 29522U 06050A   25351.01352362  .00000155  00000+0  10267-3 0  9998", "line2": "2 29522  98.7391 356.3137 0009569 211.8944 148.1651 14.14921489986658"}}, "geometry": {"type": "Point", "coordinates": [121.61130212295805, -79.35124176312773]}}, {"type": "Feature", "properties": {"norad_id": 32958, "name": "FENGYUN 3A", "group": "weather", "lat": 50.77477098921095, "lon": -80.13347088696212, "alt_km": 824.664713120661, "timestamp": "2025-12-17T04:57:44.047422+00:00", "meta": {"OBJECT_NAME": "FENGYUN 3A", "OBJECT_ID": "2008-026A", "EPOCH": "2025-12-16T20:15:42.039648", "MEAN_MOTION": 14.19515933, "ECCENTRICITY": 0.00077579, "INCLINATION": 98.67, "RA_OF_ASC_NODE": 290.2846, "ARG_OF_PERICENTER": 297.3992, "MEAN_ANOMALY": 62.6395, "EPHEMERIS_TYPE": 0, "CLASSIFICATION_TYPE": "U", "NORAD_CAT_ID": 32958, "ELEMENT_SET_NO": 999, "REV_AT_EPOCH": 90953, "BSTAR": 5.9576871e-05, "MEAN_MOTION_DOT": 8.2e-07, "MEAN_MOTION_DDOT": 0}, "tle": {"line1": "1 32958U 08026A   25350.84423657  .00000082  00000+0  59577-4 0  9993", "line2": "2 32958  98.6700 290.2846 0007757 297.3992  62.6395 14.19515933909535"}}, "geometry": {"type": "Point", "coordinates": [-80.13347088696212, 50.77477098921095]}}, {"type": "Feature", "properties": {"norad_id": 35491, "name": "GOES 14", "group": "weather", "lat": -0.7139547596186427, "lon": 47.94270446697271, "alt_km": 35837.39696384318, "timestamp": "2025-12-17T04:57:44.047435+00:00", "meta": {"OBJECT_NAME": "GOES 14", "OBJECT_ID": "2009-033A", "EPOCH": "2025-12-16T16:14:51.956736", "MEAN_MOTION": 1.00096608, "ECCENTRICITY": 5.589e-05, "INCLINATION": 1.2127, "RA_OF_ASC_NODE": 85.3588, "ARG_OF_PERICENTER": 172.4672, "MEAN_ANOMALY": 319.2126, "EPHEMERIS_TYPE": 0, "CLASSIFICATION_TYPE": "U", "NORAD_CAT_ID": 35491, "ELEMENT_SET_NO": 999, "REV_AT_EPOCH": 476, "BSTAR": 0, "MEAN_MOTION_DOT": 6e-08, "MEAN_MOTION_DDOT": 0}, "tle": {"line1": "1 35491U 09033A   25350.67699024  .00000006  00000+0  00000+0 0  9999", "line2": "2 35491   1.2127  85.3588 0000558 172.4672 319.2126  1.00096608  4762"}}, "geometry": {"type": "Point", "coordinates": [47.94270446697271, -0.7139547596186427]}}, {"type": "Feature", "properties": {"norad_id": 35951, "name": "DMSP 5D-3 F18 (USA 210)", "group": "weather", "lat": 50.11364028988709, "lon": 158.37152926861478, "alt_km": 836.6522731704308, "timestamp": "2025-12-17T04:57:44.047447+00:00", "meta": {"OBJECT_NAME": "DMSP 5D-3 F18 (USA 210)", "OBJECT_ID": "2009-057A", "EPOCH": "2025-12-16T21:33:59.370912", "MEAN_MOTION": 14.14772003, "ECCENTRICITY": 0.00119692, "INCLINATION": 98.8837, "RA_OF_ASC_NODE": 327.2786, "ARG_OF_PERICENTER": 51.8294, "MEAN_ANOMALY": 308.3956, "EPHEMERIS_TYPE": 0, "CLASSIFICATION_TYPE": "U", "NORAD_CAT_ID": 35951, "ELEMENT_SET_NO": 999, "REV_AT_EPOCH": 83381, "BSTAR": 0.00016882403, "MEAN_MOTION_DOT": 2.81e-06, "MEAN_MOTION_DDOT": 0}, "tle": {"line1": "1 35951U 09057A   25350.89860383  .00000281  00000+0  16882-3 0  9992", "line2": "2 35951  98.8837 327.2786 0011969  51.8294 308.3956 14.14772003833814"}}, "geometry": {"type": "Point", "coordinates": [158.37152926861478, 50.11364028988709]}}, {"type": "Feature", "properties": {"norad_id": 36411, "name": "EWS-G2 (GOES 15)", "group": "weather", "lat": 0.552523294702124, "lon": -138.14975100590752, "alt_km": 35768.469753687576, "timestamp": "2025-12-17T04:57:44.047460+00:00", "meta": {"OBJECT_NAME": "EWS-G2 (GOES 15)", "OBJECT_ID": "2010-008A", "EPOCH": "2025-12-16T20:03:48.114720", "MEAN_MOTION": 1.00270631, "ECCENTRICITY": 0.00055232, "INCLINATION": 0.8237, "RA_OF_ASC_NODE": 86.0789, "ARG_OF_PERICENTER": 176.1378, "MEAN_ANOMALY": 185.8352, "EPHEMERIS_TYPE": 0, "CLASSIFICATION_TYPE": "U", "NORAD_CAT_ID": 36411, "ELEMENT_SET_NO": 999, "REV_AT_EPOCH": 5781, "BSTAR": 0, "MEAN_MOTION_DOT": 6.2e-07, "MEAN_MOTION_DDOT": 0}, "tle": {"line1": "1 36411U 10008A   25350.83597355  .00000062  00000+0  00000+0 0  9990", "line2": "2 36411   0.8237  86.0789 0005523 176.1378 185.8352  1.00270631 57816"}}, "geometry": {"type": "Point", "coordinates": [-138.14975100590752, 0.552523294702124]}}, {"type": "Feature", "properties": {"norad_id": 36744, "name": "COMS 1", "group": "weather", "lat": -2.2448010688804976, "lon": -71.38728009637906, "alt_km": 35783.34586319736, "timestamp": "2025-12-17T04:57:44.047473+00:00", "meta": {"OBJECT_NAME": "COMS 1", "OBJECT_ID": "2010-032A", "EPOCH": "2025-12-16T15:40:39.006336", "MEAN_MOTION": 1.00271497, "ECCENTRICITY": 7.618e-05, "INCLINATION": 4.3501, "RA_OF_ASC_NODE": 77.9556, "ARG_OF_PERICENTER": 203.9392, "MEAN_ANOMALY": 166.9783, "EPHEMERIS_TYPE": 0, "CLASSIFICATION_TYPE": "U", "NORAD_CAT_ID": 36744, "ELEMENT_SET_NO": 999, "REV_AT_EPOCH": 4926, "BSTAR": 0, "MEAN_MOTION_DOT": -3.23e-06, "MEAN_MOTION_DDOT": 0}, "tle": {"line1": "1 36744U 10032A   25350.65322924 -.00000323  00000+0  00000+0 0  9995", "line2": "2 36744   4.3501  77.9556 0000761 203.9392 166.9783  1.00271497 49262"}}, "geometry": {"type": "Point", "coordinates": [-71.38728009637906, -2.2448010688804976]}}, {"type": "Feature", "properties": {"norad_id": 37214, "name": "FENGYUN 3B", "group": "weather", "lat": 80.16271007195306, "lon": -82.8552597959437, "alt_km": 840.6837267024121, "timestamp": "2025-12-17T04:57:44.047485+00:00", "meta": {"OBJECT_NAME": "FENGYUN 3B", "OBJECT_ID": "2010-059A", "EPOCH": "2025-12-16T23:58:22.082880", "MEAN_MOTION": 14.14789811, "ECCENTRICITY": 0.00218888, "INCLINATION": 98.9909, "RA_OF_ASC_NODE": 31.0061, "ARG_OF_PERICENTER": 345.6931, "MEAN_ANOMALY": 129.7965, "EPHEMERIS_TYPE": 0, "CLASSIFICATION_TYPE": "U", "NORAD_CAT_ID": 37214, "ELEMENT_SET_NO": 999, "REV_AT_EPOCH": 78166, "BSTAR": 6.250791e-06, "MEAN_MOTION_DOT": -3.3e-07, "MEAN_MOTION_DDOT": 0}, "tle": {"line1": "1 37214U 10059A   25350.99886670 -.00000033  00000+0  62508-5 0  9992", "line2": "2 37214  98.9909  31.0061 0021888 345.6931 129.7965 14.14789811781663"}}, "geometry": {"type": "Point", "coordinates": [-82.8552597959437, 80.16271007195306]}}, {"type": "Feature", "properties": {"norad_id": 37849, "name": "SUOMI NPP", "group": "weather", "lat": 10.08684074483561, "lon": -73.06684833854324, "alt_km": 828.8456401841413, "timestamp": "2025-12-17T04:57:44.047496+00:00", "meta": {"OBJECT_NAME": "SUOMI NPP", "OBJECT_ID": "2011-061A", "EPOCH": "2025-12-16T22:08:51.377568", "MEAN_MOTION": 14.19515404, "ECCENTRICITY": 0.00023662, "INCLINATION": 98.7777, "RA_OF_ASC_NODE": 288.2268, "ARG_OF_PERICENTER": 112.857, "MEAN_ANOMALY": 247.2856, "EPHEMERIS_TYPE": 0, "CLASSIFICATION_TYPE": "U", "NORAD_CAT_ID": 37849, "ELEMENT_SET_NO": 999, "REV_AT_EPOCH": 73258, "BSTAR": 5.488247e-05, "MEAN_MOTION_DOT": 7.1e-07, "MEAN_MOTION_DDOT": 0}, "tle": {"line1": "1 37849U 11061A   25350.92281687  .00000071  00000+0  54882-4 0  9996", "line2": "2 37849  98.7777 288.2268 0002366 112.8570 247.2856 14.19515404732588"}}, "geometry": {"type": "Point", "coordinates": [-73.06684833854324, 10.08684074483561]}}]}